KUIPER-00175            
1 67135U 25301C   26061.83335647  .00003238  00000+0  11961-3 0  9993
2 67135  51.8754  97.9107 0002213  24.4109 167.6326 15.30681821  5578
KUIPER-00179            
1 67136U 25301D   26061.83335647 -.00523200  00000+0 -26351-1 0  9999
2 67136  51.8808  98.7560 0002650  40.7079 101.9578 15.18796013  5849
KUIPER-00181            
1 67137U 25301E   26061.83335647 -.00051575  00000+0 -71090-2 0  9992
2 67137  51.9007 107.2585 0002692 102.1695   2.3367 14.77985595  4958
KUIPER-00183            
1 67138U 25301F   26061.83335647 -.00627894  00000+0 -20972-1 0  9998
2 67138  51.8647  98.9339 0015051  25.5374 332.6390 15.32580725  5680
KUIPER-00184            
1 67139U 25301G   26061.36036967  .00041729  00000+0  11356-2 0  9992
2 67139  51.8629 101.0458 0012649  23.7355 336.4213 15.37031755 12883
KUIPER-00186            
1 67140U 25301H   26061.83335647 -.00024707  00000+0 -32257-2 0  9995
2 67140  51.9005 108.4304 0000866  71.1883 333.2802 14.79909447  5682
KUIPER-00187            
1 67141U 25301J   26061.83335647 -.00028417  00000+0 -37103-2 0  9993
2 67141  51.9018 110.9420 0000692  85.7896 333.2839 14.79978063  5248
KUIPER-00188            
1 67142U 25301K   26061.39909351  .00035518  00000+0  94828-3 0  9990
2 67142  51.8685 100.6061 0010162  17.5134 342.6202 15.37727776 12611
KUIPER-00191            
1 67143U 25301L   26061.83335647 -.00036979  00000+0 -42250-2 0  9996
2 67143  51.8989 103.6419 0008968  42.7786  64.8723 14.85590979  4519
KUIPER-00196            
1 67144U 25301M   26061.35646484  .00019816  00000+0  52260-3 0  9990
2 67144  51.8704 100.3484 0003758 356.2395   3.8563 15.38479442 12617
KUIPER-00204            
1 67145U 25301N   26061.39014121  .00020789  00000+0  81064-3 0  9997
2 67145  51.8836 104.9383 0002881 321.8219  38.2559 15.25900432 12667
KUIPER-00210            
1 67146U 25301P   26061.83335647 -.00033352  00000+0 -35877-2 0  9998
2 67146  51.8959 103.6569 0011438  46.4843 205.0939 14.87967470  5746
KUIPER-00221            
1 67147U 25301Q   26061.51842823  .00012997  00000+0  17303-2 0  9997
2 67147  51.9008 112.3175 0000541 100.9854 259.1169 14.79942022 12463
KUIPER-00232            
1 67148U 25301R   26061.83335647 -.00015497  00000+0 -70990-3 0  9996
2 67148  51.8818  98.6207 0002969 132.3557  26.3030 15.19351924  4900
KUIPER-00241            
1 67149U 25301S   26061.83335647 -.00045899  00000+0 -59367-2 0  9990
2 67149  51.9019 105.9355 0000775  39.6660 168.4672 14.80605372  5310
KUIPER-00245            
1 67150U 25301T   26061.51568494  .00005257  00000+0  71764-3 0  9993
2 67150  51.9018 114.8500 0000426  59.0265 301.0739 14.79958204 12424
KUIPER-00246            
1 67151U 25301U   26061.83335647 -.00963699  00000+0 -63795-1 0  9999
2 67151  51.8933  99.8553 0004637  43.1539 283.6077 15.09865804  5638
