[{"OBJECT_NAME":"KUIPER-00175","OBJECT_ID":"2025-301C","EPOCH":"2026-03-02T20:00:01.999008","MEAN_MOTION":15.30681821,"ECCENTRICITY":0.0002213,"INCLINATION":51.8754,"RA_OF_ASC_NODE":97.9107,"ARG_OF_PERICENTER":24.4109,"MEAN_ANOMALY":167.6326,"EPHEMERIS_TYPE":0,"CLASSIFICATION_TYPE":"U","NORAD_CAT_ID":67135,"ELEMENT_SET_NO":999,"REV_AT_EPOCH":557,"BSTAR":0.00011961,"MEAN_MOTION_DOT":3.238e-5,"MEAN_MOTION_DDOT":0},{"OBJECT_NAME":"KUIPER-00179","OBJECT_ID":"2025-301D","EPOCH":"2026-03-02T20:00:01.999008","MEAN_MOTION":15.18796013,"ECCENTRICITY":0.000265,"INCLINATION":51.8808,"RA_OF_ASC_NODE":98.756,"ARG_OF_PERICENTER":40.7079,"MEAN_ANOMALY":101.9578,"EPHEMERIS_TYPE":0,"CLASSIFICATION_TYPE":"U","NORAD_CAT_ID":67136,"ELEMENT_SET_NO":999,"REV_AT_EPOCH":584,"BSTAR":-0.026351,"MEAN_MOTION_DOT":-0.005232,"MEAN_MOTION_DDOT":0},{"OBJECT_NAME":"KUIPER-00181","OBJECT_ID":"2025-301E","EPOCH":"2026-03-02T20:00:01.999008","MEAN_MOTION":14.77985595,"ECCENTRICITY":0.0002692,"INCLINATION":51.9007,"RA_OF_ASC_NODE":107.2585,"ARG_OF_PERICENTER":102.1695,"MEAN_ANOMALY":2.3367,"EPHEMERIS_TYPE":0,"CLASSIFICATION_TYPE":"U","NORAD_CAT_ID":67137,"ELEMENT_SET_NO":999,"REV_AT_EPOCH":495,"BSTAR":-0.007109,"MEAN_MOTION_DOT":-0.00051575,"MEAN_MOTION_DDOT":0},{"OBJECT_NAME":"KUIPER-00183","OBJECT_ID":"2025-301F","EPOCH":"2026-03-02T20:00:01.999008","MEAN_MOTION":15.32580725,"ECCENTRICITY":0.0015051,"INCLINATION":51.8647,"RA_OF_ASC_NODE":98.9339,"ARG_OF_PERICENTER":25.5374,"MEAN_ANOMALY":332.639,"EPHEMERIS_TYPE":0,"CLASSIFICATION_TYPE":"U","NORAD_CAT_ID":67138,"ELEMENT_SET_NO":999,"REV_AT_EPOCH":568,"BSTAR":-0.020972,"MEAN_MOTION_DOT":-0.00627894,"MEAN_MOTION_DDOT":0},{"OBJECT_NAME":"KUIPER-00184","OBJECT_ID":"2025-301G","EPOCH":"2026-03-02T08:38:55.939488","MEAN_MOTION":15.37031755,"ECCENTRICITY":0.00126491,"INCLINATION":51.8629,"RA_OF_ASC_NODE":101.0458,"ARG_OF_PERICENTER":23.7355,"MEAN_ANOMALY":336.4213,"EPHEMERIS_TYPE":0,"CLASSIFICATION_TYPE":"U","NORAD_CAT_ID":67139,"ELEMENT_SET_NO":999,"REV_AT_EPOCH":1288,"BSTAR":0.0011356184,"MEAN_MOTION_DOT":0.00041729,"MEAN_MOTION_DDOT":0},{"OBJECT_NAME":"KUIPER-00186","OBJECT_ID":"2025-301H","EPOCH":"2026-03-02T20:00:01.999008","MEAN_MOTION":14.79909447,"ECCENTRICITY":8.66e-5,"INCLINATION":51.9005,"RA_OF_ASC_NODE":108.4304,"ARG_OF_PERICENTER":71.1883,"MEAN_ANOMALY":333.2802,"EPHEMERIS_TYPE":0,"CLASSIFICATION_TYPE":"U","NORAD_CAT_ID":67140,"ELEMENT_SET_NO":999,"REV_AT_EPOCH":568,"BSTAR":-0.0032257,"MEAN_MOTION_DOT":-0.00024707,"MEAN_MOTION_DDOT":0},{"OBJECT_NAME":"KUIPER-00187","OBJECT_ID":"2025-301J","EPOCH":"2026-03-02T20:00:01.999008","MEAN_MOTION":14.79978063,"ECCENTRICITY":6.92e-5,"INCLINATION":51.9018,"RA_OF_ASC_NODE":110.942,"ARG_OF_PERICENTER":85.7896,"MEAN_ANOMALY":333.2839,"EPHEMERIS_TYPE":0,"CLASSIFICATION_TYPE":"U","NORAD_CAT_ID":67141,"ELEMENT_SET_NO":999,"REV_AT_EPOCH":524,"BSTAR":-0.0037103,"MEAN_MOTION_DOT":-0.00028417,"MEAN_MOTION_DDOT":0},{"OBJECT_NAME":"KUIPER-00188","OBJECT_ID":"2025-301K","EPOCH":"2026-03-02T09:34:41.679264","MEAN_MOTION":15.37727776,"ECCENTRICITY":0.00101628,"INCLINATION":51.8685,"RA_OF_ASC_NODE":100.6061,"ARG_OF_PERICENTER":17.5134,"MEAN_ANOMALY":342.6202,"EPHEMERIS_TYPE":0,"CLASSIFICATION_TYPE":"U","NORAD_CAT_ID":67142,"ELEMENT_SET_NO":999,"REV_AT_EPOCH":1261,"BSTAR":0.00094827816,"MEAN_MOTION_DOT":0.00035518,"MEAN_MOTION_DDOT":0},{"OBJECT_NAME":"KUIPER-00191","OBJECT_ID":"2025-301L","EPOCH":"2026-03-02T20:00:01.999008","MEAN_MOTION":14.85590979,"ECCENTRICITY":0.0008968,"INCLINATION":51.8989,"RA_OF_ASC_NODE":103.6419,"ARG_OF_PERICENTER":42.7786,"MEAN_ANOMALY":64.8723,"EPHEMERIS_TYPE":0,"CLASSIFICATION_TYPE":"U","NORAD_CAT_ID":67143,"ELEMENT_SET_NO":999,"REV_AT_EPOCH":451,"BSTAR":-0.004225,"MEAN_MOTION_DOT":-0.00036979,"MEAN_MOTION_DDOT":0},{"OBJECT_NAME":"KUIPER-00196","OBJECT_ID":"2025-301M","EPOCH":"2026-03-02T08:33:18.562176","MEAN_MOTION":15.38479442,"ECCENTRICITY":0.0003758,"INCLINATION":51.8704,"RA_OF_ASC_NODE":100.3484,"ARG_OF_PERICENTER":356.2395,"MEAN_ANOMALY":3.8563,"EPHEMERIS_TYPE":0,"CLASSIFICATION_TYPE":"U","NORAD_CAT_ID":67144,"ELEMENT_SET_NO":999,"REV_AT_EPOCH":1261,"BSTAR":0.00052260431,"MEAN_MOTION_DOT":0.00019816,"MEAN_MOTION_DDOT":0},{"OBJECT_NAME":"KUIPER-00204","OBJECT_ID":"2025-301N","EPOCH":"2026-03-02T09:21:48.200544","MEAN_MOTION":15.25900432,"ECCENTRICITY":0.00028818,"INCLINATION":51.8836,"RA_OF_ASC_NODE":104.9383,"ARG_OF_PERICENTER":321.8219,"MEAN_ANOMALY":38.2559,"EPHEMERIS_TYPE":0,"CLASSIFICATION_TYPE":"U","NORAD_CAT_ID":67145,"ELEMENT_SET_NO":999,"REV_AT_EPOCH":1266,"BSTAR":0.00081064199,"MEAN_MOTION_DOT":0.00020789,"MEAN_MOTION_DDOT":0},{"OBJECT_NAME":"KUIPER-00210","OBJECT_ID":"2025-301P","EPOCH":"2026-03-02T20:00:01.999008","MEAN_MOTION":14.8796747,"ECCENTRICITY":0.0011438,"INCLINATION":51.8959,"RA_OF_ASC_NODE":103.6569,"ARG_OF_PERICENTER":46.4843,"MEAN_ANOMALY":205.0939,"EPHEMERIS_TYPE":0,"CLASSIFICATION_TYPE":"U","NORAD_CAT_ID":67146,"ELEMENT_SET_NO":999,"REV_AT_EPOCH":574,"BSTAR":-0.0035877,"MEAN_MOTION_DOT":-0.00033352,"MEAN_MOTION_DDOT":0},{"OBJECT_NAME":"KUIPER-00221","OBJECT_ID":"2025-301Q","EPOCH":"2026-03-02T12:26:32.199072","MEAN_MOTION":14.79942022,"ECCENTRICITY":5.41e-5,"INCLINATION":51.9008,"RA_OF_ASC_NODE":112.3175,"ARG_OF_PERICENTER":100.9854,"MEAN_ANOMALY":259.1169,"EPHEMERIS_TYPE":0,"CLASSIFICATION_TYPE":"U","NORAD_CAT_ID":67147,"ELEMENT_SET_NO":999,"REV_AT_EPOCH":1246,"BSTAR":0.0017302575,"MEAN_MOTION_DOT":0.00012997,"MEAN_MOTION_DDOT":0},{"OBJECT_NAME":"KUIPER-00232","OBJECT_ID":"2025-301R","EPOCH":"2026-03-02T20:00:01.999008","MEAN_MOTION":15.19351924,"ECCENTRICITY":0.0002969,"INCLINATION":51.8818,"RA_OF_ASC_NODE":98.6207,"ARG_OF_PERICENTER":132.3557,"MEAN_ANOMALY":26.303,"EPHEMERIS_TYPE":0,"CLASSIFICATION_TYPE":"U","NORAD_CAT_ID":67148,"ELEMENT_SET_NO":999,"REV_AT_EPOCH":490,"BSTAR":-0.0007099,"MEAN_MOTION_DOT":-0.00015497,"MEAN_MOTION_DDOT":0},{"OBJECT_NAME":"KUIPER-00241","OBJECT_ID":"2025-301S","EPOCH":"2026-03-02T20:00:01.999008","MEAN_MOTION":14.80605372,"ECCENTRICITY":7.75e-5,"INCLINATION":51.9019,"RA_OF_ASC_NODE":105.9355,"ARG_OF_PERICENTER":39.666,"MEAN_ANOMALY":168.4672,"EPHEMERIS_TYPE":0,"CLASSIFICATION_TYPE":"U","NORAD_CAT_ID":67149,"ELEMENT_SET_NO":999,"REV_AT_EPOCH":531,"BSTAR":-0.0059367,"MEAN_MOTION_DOT":-0.00045899,"MEAN_MOTION_DDOT":0},{"OBJECT_NAME":"KUIPER-00245","OBJECT_ID":"2025-301T","EPOCH":"2026-03-02T12:22:35.178816","MEAN_MOTION":14.79958204,"ECCENTRICITY":4.267e-5,"INCLINATION":51.9018,"RA_OF_ASC_NODE":114.85,"ARG_OF_PERICENTER":59.0265,"MEAN_ANOMALY":301.0739,"EPHEMERIS_TYPE":0,"CLASSIFICATION_TYPE":"U","NORAD_CAT_ID":67150,"ELEMENT_SET_NO":999,"REV_AT_EPOCH":1242,"BSTAR":0.00071764472,"MEAN_MOTION_DOT":5.257e-5,"MEAN_MOTION_DDOT":0},{"OBJECT_NAME":"KUIPER-00246","OBJECT_ID":"2025-301U","EPOCH":"2026-03-02T20:00:01.999008","MEAN_MOTION":15.09865804,"ECCENTRICITY":0.0004637,"INCLINATION":51.8933,"RA_OF_ASC_NODE":99.8553,"ARG_OF_PERICENTER":43.1539,"MEAN_ANOMALY":283.6077,"EPHEMERIS_TYPE":0,"CLASSIFICATION_TYPE":"U","NORAD_CAT_ID":67151,"ELEMENT_SET_NO":999,"REV_AT_EPOCH":563,"BSTAR":-0.063795,"MEAN_MOTION_DOT":-0.00963699,"MEAN_MOTION_DDOT":0}]
